[{"OBJECT_NAME":"SL-14 R/B","OBJECT_ID":"1986-006B","EPOCH":"2026-03-17T04:37:14.179008","MEAN_MOTION":14.86825982,"ECCENTRICITY":0.00751634,"INCLINATION":82.5237,"RA_OF_ASC_NODE":252.6735,"ARG_OF_PERICENTER":247.4449,"MEAN_ANOMALY":111.8802,"EPHEMERIS_TYPE":0,"CLASSIFICATION_TYPE":"U","NORAD_CAT_ID":16496,"ELEMENT_SET_NO":999,"REV_AT_EPOCH":15032,"BSTAR":7.0459578e-5,"MEAN_MOTION_DOT":6.87e-6,"MEAN_MOTION_DDOT":0},{"OBJECT_NAME":"COSMOS 1743","OBJECT_ID":"1986-034A","EPOCH":"2026-03-17T05:12:08.767296","MEAN_MOTION":15.59132535,"ECCENTRICITY":0.00019886,"INCLINATION":82.5282,"RA_OF_ASC_NODE":65.9259,"ARG_OF_PERICENTER":223.545,"MEAN_ANOMALY":136.565,"EPHEMERIS_TYPE":0,"CLASSIFICATION_TYPE":"U","NORAD_CAT_ID":16719,"ELEMENT_SET_NO":999,"REV_AT_EPOCH":18142,"BSTAR":0.00039715911,"MEAN_MOTION_DOT":0.00031137,"MEAN_MOTION_DDOT":0},{"OBJECT_NAME":"SL-14 R/B","OBJECT_ID":"1986-046B","EPOCH":"2026-03-17T01:57:35.107776","MEAN_MOTION":14.85597742,"ECCENTRICITY":0.002251,"INCLINATION":82.4785,"RA_OF_ASC_NODE":73.1948,"ARG_OF_PERICENTER":199.9614,"MEAN_ANOMALY":160.0724,"EPHEMERIS_TYPE":0,"CLASSIFICATION_TYPE":"U","NORAD_CAT_ID":16792,"ELEMENT_SET_NO":999,"REV_AT_EPOCH":12750,"BSTAR":4.8711938e-5,"MEAN_MOTION_DOT":4.47e-6,"MEAN_MOTION_DDOT":0},{"OBJECT_NAME":"SL-14 R/B","OBJECT_ID":"1986-055B","EPOCH":"2026-03-17T05:06:02.331936","MEAN_MOTION":14.85649444,"ECCENTRICITY":0.00176377,"INCLINATION":82.5185,"RA_OF_ASC_NODE":119.6024,"ARG_OF_PERICENTER":310.4369,"MEAN_ANOMALY":115.4836,"EPHEMERIS_TYPE":0,"CLASSIFICATION_TYPE":"U","NORAD_CAT_ID":16882,"ELEMENT_SET_NO":999,"REV_AT_EPOCH":12048,"BSTAR":4.5604495e-5,"MEAN_MOTION_DOT":4.2e-6,"MEAN_MOTION_DDOT":0},{"OBJECT_NAME":"AJISAI (EGS)","OBJECT_ID":"1986-061A","EPOCH":"2026-03-17T06:39:32.853312","MEAN_MOTION":12.44515688,"ECCENTRICITY":0.00112925,"INCLINATION":50.0087,"RA_OF_ASC_NODE":70.0141,"ARG_OF_PERICENTER":306.5746,"MEAN_ANOMALY":181.5689,"EPHEMERIS_TYPE":0,"CLASSIFICATION_TYPE":"U","NORAD_CAT_ID":16908,"ELEMENT_SET_NO":999,"REV_AT_EPOCH":46894,"BSTAR":1.0621983e-5,"MEAN_MOTION_DOT":-9.6e-7,"MEAN_MOTION_DDOT":0},{"OBJECT_NAME":"SL-14 R/B","OBJECT_ID":"1987-024B","EPOCH":"2026-03-17T07:32:39.892704","MEAN_MOTION":14.86139462,"ECCENTRICITY":0.0016951,"INCLINATION":82.5244,"RA_OF_ASC_NODE":85.595,"ARG_OF_PERICENTER":232.5421,"MEAN_ANOMALY":127.4255,"EPHEMERIS_TYPE":0,"CLASSIFICATION_TYPE":"U","NORAD_CAT_ID":17567,"ELEMENT_SET_NO":999,"REV_AT_EPOCH":8926,"BSTAR":4.8597678e-5,"MEAN_MOTION_DOT":4.51e-6,"MEAN_MOTION_DDOT":0},{"OBJECT_NAME":"COSMOS 1833","OBJECT_ID":"1987-027A","EPOCH":"2026-03-17T01:56:23.310240","MEAN_MOTION":14.13052588,"ECCENTRICITY":0.0023886,"INCLINATION":70.9205,"RA_OF_ASC_NODE":310.485,"ARG_OF_PERICENTER":203.9835,"MEAN_ANOMALY":156.0175,"EPHEMERIS_TYPE":0,"CLASSIFICATION_TYPE":"U","NORAD_CAT_ID":17589,"ELEMENT_SET_NO":999,"REV_AT_EPOCH":1136,"BSTAR":-8.6502881e-5,"MEAN_MOTION_DOT":-2.1e-6,"MEAN_MOTION_DDOT":0},{"OBJECT_NAME":"SL-16 R/B","OBJECT_ID":"1987-027B","EPOCH":"2026-03-17T05:52:32.624256","MEAN_MOTION":14.1716678,"ECCENTRICITY":0.00031333,"INCLINATION":70.9993,"RA_OF_ASC_NODE":260.5727,"ARG_OF_PERICENTER":125.6346,"MEAN_ANOMALY":234.507,"EPHEMERIS_TYPE":0,"CLASSIFICATION_TYPE":"U","NORAD_CAT_ID":17590,"ELEMENT_SET_NO":999,"REV_AT_EPOCH":1641,"BSTAR":1.5345677e-5,"MEAN_MOTION_DOT":-1.7e-7,"MEAN_MOTION_DDOT":0},{"OBJECT_NAME":"SL-14 R/B","OBJECT_ID":"1987-038B","EPOCH":"2026-03-17T02:40:03.491328","MEAN_MOTION":14.85375827,"ECCENTRICITY":0.002027,"INCLINATION":82.4989,"RA_OF_ASC_NODE":289.8153,"ARG_OF_PERICENTER":136.8403,"MEAN_ANOMALY":223.4407,"EPHEMERIS_TYPE":0,"CLASSIFICATION_TYPE":"U","NORAD_CAT_ID":17912,"ELEMENT_SET_NO":999,"REV_AT_EPOCH":8033,"BSTAR":4.3247844e-5,"MEAN_MOTION_DOT":3.98e-6,"MEAN_MOTION_DDOT":0},{"OBJECT_NAME":"COSMOS 1844","OBJECT_ID":"1987-041A","EPOCH":"2026-03-17T04:17:33.857376","MEAN_MOTION":14.14551062,"ECCENTRICITY":0.00304008,"INCLINATION":70.9007,"RA_OF_ASC_NODE":18.379,"ARG_OF_PERICENTER":6.9128,"MEAN_ANOMALY":353.2407,"EPHEMERIS_TYPE":0,"CLASSIFICATION_TYPE":"U","NORAD_CAT_ID":17973,"ELEMENT_SET_NO":999,"REV_AT_EPOCH":464,"BSTAR":-3.12288e-6,"MEAN_MOTION_DOT":-5.4e-7,"MEAN_MOTION_DDOT":0},{"OBJECT_NAME":"SL-14 R/B","OBJECT_ID":"1987-055B","EPOCH":"2026-03-17T03:41:53.504736","MEAN_MOTION":14.85637798,"ECCENTRICITY":0.00204601,"INCLINATION":82.5028,"RA_OF_ASC_NODE":341.9983,"ARG_OF_PERICENTER":353.5199,"MEAN_ANOMALY":6.5749,"EPHEMERIS_TYPE":0,"CLASSIFICATION_TYPE":"U","NORAD_CAT_ID":18153,"ELEMENT_SET_NO":999,"REV_AT_EPOCH":7104,"BSTAR":5.0483857e-5,"MEAN_MOTION_DOT":4.63e-6,"MEAN_MOTION_DDOT":0},{"OBJECT_NAME":"COSMOS 1867","OBJECT_ID":"1987-060A","EPOCH":"2026-03-17T06:22:41.809152","MEAN_MOTION":14.31504189,"ECCENTRICITY":0.0014598,"INCLINATION":65.0099,"RA_OF_ASC_NODE":285.4883,"ARG_OF_PERICENTER":279.1221,"MEAN_ANOMALY":80.8212,"EPHEMERIS_TYPE":0,"CLASSIFICATION_TYPE":"U","NORAD_CAT_ID":18187,"ELEMENT_SET_NO":999,"REV_AT_EPOCH":2102,"BSTAR":2.7368463e-5,"MEAN_MOTION_DOT":-2.7e-7,"MEAN_MOTION_DDOT":0},{"OBJECT_NAME":"SL-14 R/B","OBJECT_ID":"1988-001B","EPOCH":"2026-03-17T00:21:55.281888","MEAN_MOTION":14.85536645,"ECCENTRICITY":0.00173157,"INCLINATION":82.5159,"RA_OF_ASC_NODE":188.472,"ARG_OF_PERICENTER":210.0247,"MEAN_ANOMALY":149.9978,"EPHEMERIS_TYPE":0,"CLASSIFICATION_TYPE":"U","NORAD_CAT_ID":18749,"ELEMENT_SET_NO":999,"REV_AT_EPOCH":4311,"BSTAR":5.3193305e-5,"MEAN_MOTION_DOT":4.85e-6,"MEAN_MOTION_DDOT":0},{"OBJECT_NAME":"COSMOS 1933","OBJECT_ID":"1988-020A","EPOCH":"2026-03-17T07:18:43.197696","MEAN_MOTION":15.18056989,"ECCENTRICITY":0.00044661,"INCLINATION":82.5101,"RA_OF_ASC_NODE":243.3756,"ARG_OF_PERICENTER":157.3032,"MEAN_ANOMALY":202.84,"EPHEMERIS_TYPE":0,"CLASSIFICATION_TYPE":"U","NORAD_CAT_ID":18958,"ELEMENT_SET_NO":999,"REV_AT_EPOCH":5138,"BSTAR":0.00015409141,"MEAN_MOTION_DOT":3.168e-5,"MEAN_MOTION_DDOT":0},{"OBJECT_NAME":"SL-3 R/B","OBJECT_ID":"1988-032B","EPOCH":"2026-03-17T05:42:05.628960","MEAN_MOTION":15.19997142,"ECCENTRICITY":0.0025076,"INCLINATION":97.5196,"RA_OF_ASC_NODE":59.4621,"ARG_OF_PERICENTER":203.8793,"MEAN_ANOMALY":156.1281,"EPHEMERIS_TYPE":0,"CLASSIFICATION_TYPE":"U","NORAD_CAT_ID":19046,"ELEMENT_SET_NO":999,"REV_AT_EPOCH":5325,"BSTAR":0.00019545255,"MEAN_MOTION_DOT":4.172e-5,"MEAN_MOTION_DDOT":0},{"OBJECT_NAME":"SL-16 R/B","OBJECT_ID":"1988-039B","EPOCH":"2026-03-17T04:01:11.599968","MEAN_MOTION":14.19617444,"ECCENTRICITY":0.0023149,"INCLINATION":71.0146,"RA_OF_ASC_NODE":52.7342,"ARG_OF_PERICENTER":323.504,"MEAN_ANOMALY":36.4507,"EPHEMERIS_TYPE":0,"CLASSIFICATION_TYPE":"U","NORAD_CAT_ID":19120,"ELEMENT_SET_NO":999,"REV_AT_EPOCH":95944,"BSTAR":6.170081e-5,"MEAN_MOTION_DOT":8.2e-7,"MEAN_MOTION_DDOT":0},{"OBJECT_NAME":"COSMOS 1953","OBJECT_ID":"1988-050A","EPOCH":"2026-03-17T05:15:37.577088","MEAN_MOTION":15.2865398,"ECCENTRICITY":0.00126667,"INCLINATION":82.5102,"RA_OF_ASC_NODE":150.6748,"ARG_OF_PERICENTER":98.9424,"MEAN_ANOMALY":261.325,"EPHEMERIS_TYPE":0,"CLASSIFICATION_TYPE":"U","NORAD_CAT_ID":19210,"ELEMENT_SET_NO":999,"REV_AT_EPOCH":3893,"BSTAR":0.00021416114,"MEAN_MOTION_DOT":6.013e-5,"MEAN_MOTION_DDOT":0}]
