SL-14 R/B               
1 16496U 86006B   26076.19252522  .00000687  00000+0  70460-4 0  9996
2 16496  82.5237 252.6735 0075163 247.4449 111.8802 14.86825982150326
COSMOS 1743             
1 16719U 86034A   26076.21676814  .00031137  00000+0  39716-3 0  9994
2 16719  82.5282  65.9259 0001988 223.5450 136.5650 15.59132535181427
SL-14 R/B               
1 16792U 86046B   26076.08165634  .00000447  00000+0  48712-4 0  9993
2 16792  82.4785  73.1948 0022510 199.9614 160.0724 14.85597742127509
SL-14 R/B               
1 16882U 86055B   26076.21252699  .00000420  00000+0  45604-4 0  9994
2 16882  82.5185 119.6024 0017637 310.4369 115.4836 14.85649444120481
AJISAI (EGS)            
1 16908U 86061A   26076.27746358 -.00000096  00000+0  10622-4 0  9998
2 16908  50.0087  70.0141 0011292 306.5746 181.5689 12.44515688468948
SL-14 R/B               
1 17567U 87024B   26076.31435061  .00000451  00000+0  48598-4 0  9998
2 17567  82.5244  85.5950 0016951 232.5421 127.4255 14.86139462 89261
COSMOS 1833             
1 17589U 87027A   26076.08082535 -.00000210  00000+0 -86503-4 0  9996
2 17589  70.9205 310.4850 0023886 203.9835 156.0175 14.13052588 11366
SL-16 R/B               
1 17590U 87027B   26076.24482204 -.00000017  00000+0  15346-4 0  9994
2 17590  70.9993 260.5727 0003133 125.6346 234.5070 14.17166780 16411
SL-14 R/B               
1 17912U 87038B   26076.11115152  .00000398  00000+0  43248-4 0  9998
2 17912  82.4989 289.8153 0020270 136.8403 223.4407 14.85375827 80330
COSMOS 1844             
1 17973U 87041A   26076.17886409 -.00000054  00000+0 -31229-5 0  9993
2 17973  70.9007  18.3790 0030400   6.9128 353.2407 14.14551062  4640
SL-14 R/B               
1 18153U 87055B   26076.15409149  .00000463  00000+0  50484-4 0  9994
2 18153  82.5028 341.9983 0020460 353.5199   6.5749 14.85637798 71040
COSMOS 1867             
1 18187U 87060A   26076.26576168 -.00000027  00000+0  27368-4 0  9997
2 18187  65.0099 285.4883 0014598 279.1221  80.8212 14.31504189 21027
SL-14 R/B               
1 18749U 88001B   26076.01522317  .00000485  00000+0  53193-4 0  9999
2 18749  82.5159 188.4720 0017315 210.0247 149.9978 14.85536645 43117
COSMOS 1933             
1 18958U 88020A   26076.30466664  .00003168  00000+0  15409-3 0  9994
2 18958  82.5101 243.3756 0004466 157.3032 202.8400 15.18056989 51386
SL-3 R/B                
1 19046U 88032B   26076.23756515  .00004172  00000+0  19545-3 0  9996
2 19046  97.5196  59.4621 0025076 203.8793 156.1281 15.19997142 53255
SL-16 R/B               
1 19120U 88039B   26076.16749537  .00000082  00000+0  61701-4 0  9992
2 19120  71.0146  52.7342 0023149 323.5040  36.4507 14.19617444959440
COSMOS 1953             
1 19210U 88050A   26076.21918492  .00006013  00000+0  21416-3 0  9997
2 19210  82.5102 150.6748 0012666  98.9424 261.3250 15.28653980 38930
